#aV2011  6 15  0  0   .00000000      96 DD+AD WGS84 FIT  NGA
## 1640 259200.00000000   900.00000000 55727  .0000000000000
+   32     1  2  3  4  5  6  7  8  9 10 11 12 13 14 15 16 17
+         18 19 20 21 22 23 24 25 26 27 28 29 30 31 32  0  0
+          0  0  0  0  0  0  0  0  0  0  0  0  0  0  0  0  0
+          0  0  0  0  0  0  0  0  0  0  0  0  0  0  0  0  0
+          0  0  0  0  0  0  0  0  0  0  0  0  0  0  0  0  0
++         0  0  0  0  0  0  0  0  0  0  0  0  0  0  0  0  0
++         0  0  0  0  0  0  0  0  0  0  0  0  0  0  0  0  0
++         0  0  0  0  0  0  0  0  0  0  0  0  0  0  0  0  0
++         0  0  0  0  0  0  0  0  0  0  0  0  0  0  0  0  0
++         0  0  0  0  0  0  0  0  0  0  0  0  0  0  0  0  0
%c cc cc ccc ccc cccc cccc cccc cccc ccccc ccccc ccccc ccccc
%c cc cc ccc ccc cccc cccc cccc cccc ccccc ccccc ccccc ccccc
%f  0.0000000  0.000000000  0.00000000000  0.000000000000000
%f  0.0000000  0.000000000  0.00000000000  0.000000000000000
%i    0    0    0    0      0      0      0      0         0
%i    0    0    0    0      0      0      0      0         0
/*      NGA, ST. LOUIS,MO.                                  
/*   EPHEMERIS COMPUTED FROM  3 DAYS OF DATA                
/* CCCCCCCCCCCCCCCCCCCCCCCCCCCCCCCCCCCCCCCCCCCCCCCCCCCCCCCCC
/* CCCCCCCCCCCCCCCCCCCCCCCCCCCCCCCCCCCCCCCCCCCCCCCCCCCCCCCCC
*  2011  6 15  2  0   .00000000                                                 
P  1 -20547.043119  10747.694847  12555.762046     91.290604                    
V  1   8655.856199 -14332.930677  25738.715258       .022745                    
P  2 -13930.516791 -19942.447566 -11170.467278    341.759626                    
V  2  -1164.811792 -14338.614888  26428.542386       .019306                    
P  3  21899.691019  11308.292848 -10720.568068    728.779350                    
V  3 -13250.805936   1055.276626 -26709.395992       .052102                    
P  4  -5890.713941 -25681.994046    854.818631    144.419348                    
V  4   4072.653372    354.000285  31431.385676       .107240                    
P  5 -13220.538964  -8358.996088 -21489.867784   -174.951376                    
V  5  19215.306363 -19346.485095  -4194.287897      -.056284                    
P  6  18507.607452  13951.944236 -13022.194662    203.428342                    
V  6 -16951.057533   -976.245545 -24605.829403      -.826185                    
P  7   7605.050927 -18489.195444 -17372.199224     14.379061                    
V  7   6812.430617  21098.203374 -19682.654032       .013082                    
P  8   2299.146691 -24322.637670  -9662.269693      8.178958                    
V  8   3964.365752  11955.746766 -29612.209957       .001877                    
P  9 -15019.839044  -1049.893960  21325.191306     86.461040                    
V  9  -7081.365043 -27451.575983  -6183.491909       .023998                    
P 10   1783.045190 -19407.222656 -18089.484749     -3.711639                    
V 10  17890.806300 -14126.510469  17493.437124      -.010919                    
P 11  18590.145798   2307.322485  18610.283389   -159.598692                    
V 11  10117.837059  22434.756577 -12319.624668      -.032405                    
P 12 -21632.291721   8752.527894  12534.757850      2.528477                    
V 12  10180.495503 -12419.223816  26449.025733       .026034                    
P 13  16633.321449  -7481.611746 -19476.927389    265.491503                    
V 13  22513.973279   9253.833590  15725.239464      -.016579                    
P 14   2647.621481  15917.591296  21284.410913    156.069124                    
V 14 -25290.758885  -8135.671772   9159.561709       .022137                    
P 15 -26056.800064  -3615.894340   4266.009500   -121.550802                    
V 15  -4474.261134  -4229.180087 -30784.197796       .023047                    
P 16  12500.220653   8551.023403 -21826.784008   -179.060307                    
V 16 -20354.611760  18757.919649  -4007.811723      -.025205                    
P 17  -3150.662822 -16296.747761  20922.951303    183.739307                    
V 17  25205.210888   7161.536198   9216.483446      -.004799                    
P 18 -15147.562340  20736.365837   6272.321468    142.249996                    
V 18  -8182.731548   2520.179873 -29988.431425       .019366                    
P 19  25401.952515   8239.989962   1658.133100   -151.467289                    
V 19   1057.528304   3145.829163 -31380.962455      -.040633                    
P 20  21439.106597 -12049.978326   9808.248024     49.912556                    
V 20  -6326.692453  11543.718004  27668.538247       .002757                    
P 21  -6501.893831  20319.027516 -15008.748475   -151.251380                    
V 21  -7867.134169 -18802.259141 -22060.865424      -.025789                    
P 22  -5055.632768  20845.489927  15768.404337    147.414982                    
V 22 -16217.039754  11715.404554 -21029.734150      -.003522                    
P 23  24408.406919   -711.891075 -10869.450350    299.122156                    
V 23  12541.955390   5847.796525  27425.920063      -.027628                    
P 24  15349.102726  -2380.416216  21603.480723    398.592324                    
V 24   5381.469095  26811.489318   -583.246893       .030653                    
P 25 -19321.076199  18160.350477   1227.416753      3.967684                    
V 25   -805.963903  -3044.562374  31807.022380       .019929                    
P 26 -22318.521682 -13218.477696  -7209.730031    -60.769320                    
V 26   8236.434711   1463.514226 -30355.981003      -.115051                    
P 27 -16428.208613  -7208.646040  20349.838559    275.076898                    
V 27  -6465.182662 -23383.195855 -13630.559008       .037086                    
P 28   8855.473369 -20852.277209  14169.445748     44.858793                    
V 28  14024.537138 -10111.094755 -24798.357839       .027119                    
P 29 -18362.417140   7085.238637 -17736.682473    215.286613                    
V 29 -21086.789720  -8542.701057  18382.526053       .029541                    
P 30   4933.526761  16102.270030 -20948.514496     11.497412                    
V 30 -18177.659371  18135.238248   9879.659927       .049015                    
P 31   7083.678483  25435.023825  -1270.126506     95.708710                    
V 31  -1897.863095   2377.822598  32253.730675       .058424                    
P 32  21051.467170  -2632.041252  15992.588587   -273.391236                    
V 32 -14048.573385  14386.659214  21642.675942      -.071366                    
EOF
